[
  {
    "OBJECT_NAME": "STARLINK-11481 [DTC]",
    "OBJECT_ID": "24231N",
    "EPOCH": "2025-11-11T07:24:39.392928",
    "MEAN_MOTION": 15.69831113,
    "ECCENTRICITY": 0.0001182,
    "INCLINATION": 53.1572,
    "RA_OF_ASC_NODE": 325.188,
    "ARG_OF_PERICENTER": 87.0244,
    "MEAN_ANOMALY": 273.0909,
    "EPHEMERIS_TYPE": 0,
    "CLASSIFICATION_TYPE": "U",
    "NORAD_CAT_ID": 62230,
    "ELEMENT_SET_NO": 999,
    "REV_AT_EPOCH": 5481,
    "BSTAR": 0.0018135000000000002,
    "MEAN_MOTION_DOT": 0.00226345,
    "MEAN_MOTION_DDOT": 0.0,
    "TLE_LINE1": "1 62230U 24231N   25315.30878927  .00226345  00000+0  18135-2 0  9996",
    "TLE_LINE2": "2 62230  53.1572 325.1880 0001182  87.0244 273.0909 15.69831113 54818",
    "COMMENT": "Grouped by shell and plane from TLE"
  },
  {
    "OBJECT_NAME": "STARLINK-11727 [DTC]",
    "OBJECT_ID": "25111A",
    "EPOCH": "2025-11-11T03:48:34.430976",
    "MEAN_MOTION": 15.70946922,
    "ECCENTRICITY": 0.0001414,
    "INCLINATION": 42.9991,
    "RA_OF_ASC_NODE": 328.6419,
    "ARG_OF_PERICENTER": 253.645,
    "MEAN_ANOMALY": 106.4262,
    "EPHEMERIS_TYPE": 0,
    "CLASSIFICATION_TYPE": "U",
    "NORAD_CAT_ID": 64123,
    "ELEMENT_SET_NO": 999,
    "REV_AT_EPOCH": 2799,
    "BSTAR": 0.0020062,
    "MEAN_MOTION_DOT": 0.00266595,
    "MEAN_MOTION_DDOT": 0.0,
    "TLE_LINE1": "1 64123U 25111A   25315.15873184  .00266595  00000+0  20062-2 0  9993",
    "TLE_LINE2": "2 64123  42.9991 328.6419 0001414 253.6450 106.4262 15.70946922 27993",
    "COMMENT": "Grouped by shell and plane from TLE"
  },
  {
    "OBJECT_NAME": "STARLINK-11724 [DTC]",
    "OBJECT_ID": "25111B",
    "EPOCH": "2025-11-11T07:37:22.727424",
    "MEAN_MOTION": 15.70935751,
    "ECCENTRICITY": 6.72e-05,
    "INCLINATION": 43.0001,
    "RA_OF_ASC_NODE": 327.2362,
    "ARG_OF_PERICENTER": 246.8859,
    "MEAN_ANOMALY": 113.1938,
    "EPHEMERIS_TYPE": 0,
    "CLASSIFICATION_TYPE": "U",
    "NORAD_CAT_ID": 64124,
    "ELEMENT_SET_NO": 999,
    "REV_AT_EPOCH": 2802,
    "BSTAR": 0.0017829999999999999,
    "MEAN_MOTION_DOT": 0.00235894,
    "MEAN_MOTION_DDOT": 0.0,
    "TLE_LINE1": "1 64124U 25111B   25315.31762416  .00235894  00000+0  17830-2 0  9994",
    "TLE_LINE2": "2 64124  43.0001 327.2362 0000672 246.8859 113.1938 15.70935751 28020",
    "COMMENT": "Grouped by shell and plane from TLE"
  },
  {
    "OBJECT_NAME": "STARLINK-11725 [DTC]",
    "OBJECT_ID": "25111C",
    "EPOCH": "2025-11-11T01:54:05.183424",
    "MEAN_MOTION": 15.71163561,
    "ECCENTRICITY": 0.0001931,
    "INCLINATION": 42.9986,
    "RA_OF_ASC_NODE": 328.8947,
    "ARG_OF_PERICENTER": 286.5412,
    "MEAN_ANOMALY": 73.5243,
    "EPHEMERIS_TYPE": 0,
    "CLASSIFICATION_TYPE": "U",
    "NORAD_CAT_ID": 64125,
    "ELEMENT_SET_NO": 999,
    "REV_AT_EPOCH": 2798,
    "BSTAR": 0.0026794,
    "MEAN_MOTION_DOT": 0.00363748,
    "MEAN_MOTION_DDOT": 0.0,
    "TLE_LINE1": "1 64125U 25111C   25315.07922666  .00363748  00000+0  26794-2 0  9992",
    "TLE_LINE2": "2 64125  42.9986 328.8947 0001931 286.5412  73.5243 15.71163561 27987",
    "COMMENT": "Grouped by shell and plane from TLE"
  },
  {
    "OBJECT_NAME": "STARLINK-11717 [DTC]",
    "OBJECT_ID": "25111D",
    "EPOCH": "2025-11-11T02:01:43.464576",
    "MEAN_MOTION": 15.70898054,
    "ECCENTRICITY": 0.0002142,
    "INCLINATION": 42.9995,
    "RA_OF_ASC_NODE": 328.9394,
    "ARG_OF_PERICENTER": 279.7134,
    "MEAN_ANOMALY": 80.3492,
    "EPHEMERIS_TYPE": 0,
    "CLASSIFICATION_TYPE": "U",
    "NORAD_CAT_ID": 64126,
    "ELEMENT_SET_NO": 999,
    "REV_AT_EPOCH": 2793,
    "BSTAR": 0.0017558,
    "MEAN_MOTION_DOT": 0.00231813,
    "MEAN_MOTION_DDOT": 0.0,
    "TLE_LINE1": "1 64126U 25111D   25315.08453084  .00231813  00000+0  17558-2 0  9992",
    "TLE_LINE2": "2 64126  42.9995 328.9394 0002142 279.7134  80.3492 15.70898054 27933",
    "COMMENT": "Grouped by shell and plane from TLE"
  },
  {
    "OBJECT_NAME": "STARLINK-11721 [DTC]",
    "OBJECT_ID": "25111E",
    "EPOCH": "2025-11-11T07:14:26.734848",
    "MEAN_MOTION": 15.70952819,
    "ECCENTRICITY": 0.0002049,
    "INCLINATION": 43.0,
    "RA_OF_ASC_NODE": 327.1073,
    "ARG_OF_PERICENTER": 286.0335,
    "MEAN_ANOMALY": 74.0307,
    "EPHEMERIS_TYPE": 0,
    "CLASSIFICATION_TYPE": "U",
    "NORAD_CAT_ID": 64127,
    "ELEMENT_SET_NO": 999,
    "REV_AT_EPOCH": 2802,
    "BSTAR": 0.0022228,
    "MEAN_MOTION_DOT": 0.00296582,
    "MEAN_MOTION_DDOT": 0.0,
    "TLE_LINE1": "1 64127U 25111E   25315.30169832  .00296582  00000+0  22228-2 0  9997",
    "TLE_LINE2": "2 64127  43.0000 327.1073 0002049 286.0335  74.0307 15.70952819 28024",
    "COMMENT": "Grouped by shell and plane from TLE"
  },
  {
    "OBJECT_NAME": "STARLINK-11722 [DTC]",
    "OBJECT_ID": "25111F",
    "EPOCH": "2025-11-11T01:38:47.423616",
    "MEAN_MOTION": 15.7094022,
    "ECCENTRICITY": 0.0001913,
    "INCLINATION": 43.0004,
    "RA_OF_ASC_NODE": 328.8098,
    "ARG_OF_PERICENTER": 241.8878,
    "MEAN_ANOMALY": 118.1796,
    "EPHEMERIS_TYPE": 0,
    "CLASSIFICATION_TYPE": "U",
    "NORAD_CAT_ID": 64128,
    "ELEMENT_SET_NO": 999,
    "REV_AT_EPOCH": 2793,
    "BSTAR": 0.0030602000000000003,
    "MEAN_MOTION_DOT": 0.00414162,
    "MEAN_MOTION_DDOT": 0.0,
    "TLE_LINE1": "1 64128U 25111F   25315.06860444  .00414162  00000+0  30602-2 0  9999",
    "TLE_LINE2": "2 64128  43.0004 328.8098 0001913 241.8878 118.1796 15.70940220 27938",
    "COMMENT": "Grouped by shell and plane from TLE"
  },
  {
    "OBJECT_NAME": "STARLINK-11679 [DTC]",
    "OBJECT_ID": "25111G",
    "EPOCH": "2025-11-11T07:22:05.505888",
    "MEAN_MOTION": 15.70923298,
    "ECCENTRICITY": 3.9e-05,
    "INCLINATION": 42.9995,
    "RA_OF_ASC_NODE": 327.1473,
    "ARG_OF_PERICENTER": 247.7713,
    "MEAN_ANOMALY": 112.3113,
    "EPHEMERIS_TYPE": 0,
    "CLASSIFICATION_TYPE": "U",
    "NORAD_CAT_ID": 64129,
    "ELEMENT_SET_NO": 999,
    "REV_AT_EPOCH": 2802,
    "BSTAR": 0.0024434,
    "MEAN_MOTION_DOT": 0.00326885,
    "MEAN_MOTION_DDOT": 0.0,
    "TLE_LINE1": "1 64129U 25111G   25315.30700817  .00326885  00000+0  24434-2 0  9994",
    "TLE_LINE2": "2 64129  42.9995 327.1473 0000390 247.7713 112.3113 15.70923298 28022",
    "COMMENT": "Grouped by shell and plane from TLE"
  },
  {
    "OBJECT_NAME": "STARLINK-11735 [DTC]",
    "OBJECT_ID": "25111H",
    "EPOCH": "2025-11-11T06:21:06.213600",
    "MEAN_MOTION": 15.70970068,
    "ECCENTRICITY": 0.0002269,
    "INCLINATION": 42.9989,
    "RA_OF_ASC_NODE": 327.702,
    "ARG_OF_PERICENTER": 299.6747,
    "MEAN_ANOMALY": 60.3895,
    "EPHEMERIS_TYPE": 0,
    "CLASSIFICATION_TYPE": "U",
    "NORAD_CAT_ID": 64130,
    "ELEMENT_SET_NO": 999,
    "REV_AT_EPOCH": 2786,
    "BSTAR": 0.0026925,
    "MEAN_MOTION_DOT": 0.00362506,
    "MEAN_MOTION_DDOT": 0.0,
    "TLE_LINE1": "1 64130U 25111H   25315.26465525  .00362506  00000+0  26925-2 0  9992",
    "TLE_LINE2": "2 64130  42.9989 327.7020 0002269 299.6747  60.3895 15.70970068 27868",
    "COMMENT": "Grouped by shell and plane from TLE"
  },
  {
    "OBJECT_NAME": "STARLINK-11720 [DTC]",
    "OBJECT_ID": "25111J",
    "EPOCH": "2025-11-11T07:29:44.042784",
    "MEAN_MOTION": 15.70926708,
    "ECCENTRICITY": 5.57e-05,
    "INCLINATION": 42.9981,
    "RA_OF_ASC_NODE": 327.1887,
    "ARG_OF_PERICENTER": 177.802,
    "MEAN_ANOMALY": 182.285,
    "EPHEMERIS_TYPE": 0,
    "CLASSIFICATION_TYPE": "U",
    "NORAD_CAT_ID": 64131,
    "ELEMENT_SET_NO": 999,
    "REV_AT_EPOCH": 2797,
    "BSTAR": 0.0023387,
    "MEAN_MOTION_DOT": 0.00312346,
    "MEAN_MOTION_DDOT": 0.0,
    "TLE_LINE1": "1 64131U 25111J   25315.31231531  .00312346  00000+0  23387-2 0  9993",
    "TLE_LINE2": "2 64131  42.9981 327.1887 0000557 177.8020 182.2850 15.70926708 27974",
    "COMMENT": "Grouped by shell and plane from TLE"
  },
  {
    "OBJECT_NAME": "STARLINK-11718 [DTC]",
    "OBJECT_ID": "25111K",
    "EPOCH": "2025-11-11T05:21:26.524224",
    "MEAN_MOTION": 15.70933032,
    "ECCENTRICITY": 0.0001548,
    "INCLINATION": 42.9981,
    "RA_OF_ASC_NODE": 328.2596,
    "ARG_OF_PERICENTER": 282.3459,
    "MEAN_ANOMALY": 77.7235,
    "EPHEMERIS_TYPE": 0,
    "CLASSIFICATION_TYPE": "U",
    "NORAD_CAT_ID": 64132,
    "ELEMENT_SET_NO": 999,
    "REV_AT_EPOCH": 2805,
    "BSTAR": 0.0014088999999999998,
    "MEAN_MOTION_DOT": 0.00185137,
    "MEAN_MOTION_DDOT": 0.0,
    "TLE_LINE1": "1 64132U 25111K   25315.22322366  .00185137  00000+0  14089-2 0  9996",
    "TLE_LINE2": "2 64132  42.9981 328.2596 0001548 282.3459  77.7235 15.70933032 28056",
    "COMMENT": "Grouped by shell and plane from TLE"
  },
  {
    "OBJECT_NAME": "STARLINK-11716 [DTC]",
    "OBJECT_ID": "25111L",
    "EPOCH": "2025-11-11T02:09:22.369536",
    "MEAN_MOTION": 15.70933252,
    "ECCENTRICITY": 9.69e-05,
    "INCLINATION": 42.9975,
    "RA_OF_ASC_NODE": 328.9759,
    "ARG_OF_PERICENTER": 249.5008,
    "MEAN_ANOMALY": 110.5755,
    "EPHEMERIS_TYPE": 0,
    "CLASSIFICATION_TYPE": "U",
    "NORAD_CAT_ID": 64133,
    "ELEMENT_SET_NO": 999,
    "REV_AT_EPOCH": 2803,
    "BSTAR": 0.0025924000000000003,
    "MEAN_MOTION_DOT": 0.00347865,
    "MEAN_MOTION_DDOT": 0.0,
    "TLE_LINE1": "1 64133U 25111L   25315.08984224  .00347865  00000+0  25924-2 0  9996",
    "TLE_LINE2": "2 64133  42.9975 328.9759 0000969 249.5008 110.5755 15.70933252 28034",
    "COMMENT": "Grouped by shell and plane from TLE"
  }
]